{"type": "FeatureCollection", "features": [ {"type": "Feature", "properties": {"norad_id": 36238, "name": "FENGYUN 1C DEB", "group": "fengyun-1c-debris", "lat": 53.42972069161503, "lon": -62.43203397296553, "alt_km": 849.2147586030705, "timestamp": "2025-12-02T13:52:17.550196+00:00", "meta": {"OBJECT_NAME": "FENGYUN 1C DEB", "OBJECT_ID": "1999-025DVP", "EPOCH": "2025-11-30T08:54:33.009696", "MEAN_MOTION": 14.1238446, "ECCENTRICITY": 0.00204991, "INCLINATION": 98.6454, "RA_OF_ASC_NODE": 307.2735, "ARG_OF_PERICENTER": 318.6567, "MEAN_ANOMALY": 41.3053, "EPHEMERIS_TYPE": 0, "CLASSIFICATION_TYPE": "U", "NORAD_CAT_ID": 36238, "ELEMENT_SET_NO": 999, "REV_AT_EPOCH": 86843, "BSTAR": 0.0001008152, "MEAN_MOTION_DOT": 1.44e-06, "MEAN_MOTION_DDOT": 0}, "tle": {"line1": "1 36238U 99025DVP 25334.37121539  .00000144  00000+0  10082-3 0  9997", "line2": "2 36238  98.6454 307.2735 0020499 318.6567  41.3053 14.12384460868435"}}, "geometry": {"type": "Point", "coordinates": [-62.43203397296553, 53.42972069161503]}}, {"type": "Feature", "properties": {"norad_id": 36244, "name": "FENGYUN 1C DEB", "group": "fengyun-1c-debris", "lat": -37.87946474259415, "lon": -99.99590800152758, "alt_km": 818.7461764988111, "timestamp": "2025-12-02T13:52:17.550206+00:00", "meta": {"OBJECT_NAME": "FENGYUN 1C DEB", "OBJECT_ID": "1999-025DVV", "EPOCH": "2025-12-01T06:30:33.359616", "MEAN_MOTION": 14.24827854, "ECCENTRICITY": 0.00483696, "INCLINATION": 98.9263, "RA_OF_ASC_NODE": 85.6985, "ARG_OF_PERICENTER": 317.9202, "MEAN_ANOMALY": 41.8266, "EPHEMERIS_TYPE": 0, "CLASSIFICATION_TYPE": "U", "NORAD_CAT_ID": 36244, "ELEMENT_SET_NO": 999, "REV_AT_EPOCH": 91815, "BSTAR": 0.0019641891, "MEAN_MOTION_DOT": 4.594e-05, "MEAN_MOTION_DDOT": 0}, "tle": {"line1": "1 36244U 99025DVV 25335.27121944  .00004594  00000+0  19642-2 0  9997", "line2": "2 36244  98.9263  85.6985 0048369 317.9202  41.8266 14.24827854918159"}}, "geometry": {"type": "Point", "coordinates": [-99.99590800152758, -37.87946474259415]}}, {"type": "Feature", "properties": {"norad_id": 36247, "name": "FENGYUN 1C DEB", "group": "fengyun-1c-debris", "lat": -33.502862001004964, "lon": 164.57503809428812, "alt_km": 901.6865046743887, "timestamp": "2025-12-02T13:52:17.550216+00:00", "meta": {"OBJECT_NAME": "FENGYUN 1C DEB", "OBJECT_ID": "1999-025DVY", "EPOCH": "2025-12-01T11:45:50.986944", "MEAN_MOTION": 14.33529137, "ECCENTRICITY": 0.01878056, "INCLINATION": 98.2683, "RA_OF_ASC_NODE": 349.0587, "ARG_OF_PERICENTER": 67.2123, "MEAN_ANOMALY": 294.8783, "EPHEMERIS_TYPE": 0, "CLASSIFICATION_TYPE": "U", "NORAD_CAT_ID": 36247, "ELEMENT_SET_NO": 999, "REV_AT_EPOCH": 70101, "BSTAR": 0.00050385684, "MEAN_MOTION_DOT": 1.653e-05, "MEAN_MOTION_DDOT": 0}, "tle": {"line1": "1 36247U 99025DVY 25335.49017346  .00001653  00000+0  50386-3 0  9998", "line2": "2 36247  98.2683 349.0587 0187805  67.2123 294.8783 14.33529137701014"}}, "geometry": {"type": "Point", "coordinates": [164.57503809428812, -33.502862001004964]}}, {"type": "Feature", "properties": {"norad_id": 36254, "name": "FENGYUN 1C DEB", "group": "fengyun-1c-debris", "lat": 74.01171814689525, "lon": 143.99566876758723, "alt_km": 484.4873133321835, "timestamp": "2025-12-02T13:52:17.550226+00:00", "meta": {"OBJECT_NAME": "FENGYUN 1C DEB", "OBJECT_ID": "1999-025DWF", "EPOCH": "2025-11-28T03:13:13.440576", "MEAN_MOTION": 15.14661368, "ECCENTRICITY": 0.00473049, "INCLINATION": 99.5271, "RA_OF_ASC_NODE": 282.5527, "ARG_OF_PERICENTER": 88.2617, "MEAN_ANOMALY": 272.4026, "EPHEMERIS_TYPE": 0, "CLASSIFICATION_TYPE": "U", "NORAD_CAT_ID": 36254, "ELEMENT_SET_NO": 999, "REV_AT_EPOCH": 60555, "BSTAR": 0.0039684562, "MEAN_MOTION_DOT": 0.00076108, "MEAN_MOTION_DDOT": 0}, "tle": {"line1": "1 36254U 99025DWF 25332.13418334  .00076108  00000+0  39685-2 0  9991", "line2": "2 36254  99.5271 282.5527 0047304  88.2617 272.4026 15.14661368605551"}}, "geometry": {"type": "Point", "coordinates": [143.99566876758723, 74.01171814689525]}}, {"type": "Feature", "properties": {"norad_id": 36255, "name": "FENGYUN 1C DEB", "group": "fengyun-1c-debris", "lat": -57.217664807387905, "lon": 61.30604688704807, "alt_km": 744.8812735674937, "timestamp": "2025-12-02T13:52:17.550236+00:00", "meta": {"OBJECT_NAME": "FENGYUN 1C DEB", "OBJECT_ID": "1999-025DWG", "EPOCH": "2025-12-02T01:08:53.393280", "MEAN_MOTION": 14.3649268, "ECCENTRICITY": 0.00635655, "INCLINATION": 99.4344, "RA_OF_ASC_NODE": 255.688, "ARG_OF_PERICENTER": 194.8753, "MEAN_ANOMALY": 182.9793, "EPHEMERIS_TYPE": 0, "CLASSIFICATION_TYPE": "U", "NORAD_CAT_ID": 36255, "ELEMENT_SET_NO": 999, "REV_AT_EPOCH": 63857, "BSTAR": 0.00086778184, "MEAN_MOTION_DOT": 2.555e-05, "MEAN_MOTION_DDOT": 0}, "tle": {"line1": "1 36255U 99025DWG 25336.04784020  .00002555  00000+0  86778-3 0  9995", "line2": "2 36255  99.4344 255.6880 0063565 194.8753 182.9793 14.36492680638573"}}, "geometry": {"type": "Point", "coordinates": [61.30604688704807, -57.217664807387905]}}, {"type": "Feature", "properties": {"norad_id": 36258, "name": "FENGYUN 1C DEB", "group": "fengyun-1c-debris", "lat": 38.967232012617686, "lon": -2.616706807583432, "alt_km": 697.5736726236983, "timestamp": "2025-12-02T13:52:17.550246+00:00", "meta": {"OBJECT_NAME": "FENGYUN 1C DEB", "OBJECT_ID": "1999-025DWK", "EPOCH": "2025-12-01T19:46:34.453632", "MEAN_MOTION": 14.74759218, "ECCENTRICITY": 0.01733667, "INCLINATION": 99.0886, "RA_OF_ASC_NODE": 3.9768, "ARG_OF_PERICENTER": 159.529, "MEAN_ANOMALY": 201.2976, "EPHEMERIS_TYPE": 0, "CLASSIFICATION_TYPE": "U", "NORAD_CAT_ID": 36258, "ELEMENT_SET_NO": 999, "REV_AT_EPOCH": 90661, "BSTAR": 0.00031250425, "MEAN_MOTION_DOT": 2.591e-05, "MEAN_MOTION_DDOT": 0}, "tle": {"line1": "1 36258U 99025DWK 25335.82400988  .00002591  00000+0  31250-3 0  9996", "line2": "2 36258  99.0886   3.9768 0173366 159.5290 201.2976 14.74759218906613"}}, "geometry": {"type": "Point", "coordinates": [-2.616706807583432, 38.967232012617686]}}, {"type": "Feature", "properties": {"norad_id": 36260, "name": "FENGYUN 1C DEB", "group": "fengyun-1c-debris", "lat": -24.73563481068294, "lon": 155.02254281236384, "alt_km": 844.0175971774897, "timestamp": "2025-12-02T13:52:17.550256+00:00", "meta": {"OBJECT_NAME": "FENGYUN 1C DEB", "OBJECT_ID": "1999-025DWM", "EPOCH": "2025-11-30T06:36:44.655840", "MEAN_MOTION": 14.153588, "ECCENTRICITY": 0.00149722, "INCLINATION": 98.6614, "RA_OF_ASC_NODE": 336.8133, "ARG_OF_PERICENTER": 287.818, "MEAN_ANOMALY": 72.1361, "EPHEMERIS_TYPE": 0, "CLASSIFICATION_TYPE": "U", "NORAD_CAT_ID": 36260, "ELEMENT_SET_NO": 999, "REV_AT_EPOCH": 87632, "BSTAR": 0.00020291618, "MEAN_MOTION_DOT": 3.53e-06, "MEAN_MOTION_DDOT": 0}, "tle": {"line1": "1 36260U 99025DWM 25334.27551685  .00000353  00000+0  20292-3 0  9996", "line2": "2 36260  98.6614 336.8133 0014972 287.8180  72.1361 14.15358800876328"}}, "geometry": {"type": "Point", "coordinates": [155.02254281236384, -24.73563481068294]}}, {"type": "Feature", "properties": {"norad_id": 36261, "name": "FENGYUN 1C DEB", "group": "fengyun-1c-debris", "lat": -7.2689902007455895, "lon": -131.0968021864012, "alt_km": 1157.470906493054, "timestamp": "2025-12-02T13:52:17.550266+00:00", "meta": {"OBJECT_NAME": "FENGYUN 1C DEB", "OBJECT_ID": "1999-025DWN", "EPOCH": "2025-11-28T22:27:41.728896", "MEAN_MOTION": 13.45462654, "ECCENTRICITY": 0.03553098, "INCLINATION": 101.3647, "RA_OF_ASC_NODE": 223.3097, "ARG_OF_PERICENTER": 107.2508, "MEAN_ANOMALY": 256.7821, "EPHEMERIS_TYPE": 0, "CLASSIFICATION_TYPE": "U", "NORAD_CAT_ID": 36261, "ELEMENT_SET_NO": 999, "REV_AT_EPOCH": 84247, "BSTAR": 0.00058812885, "MEAN_MOTION_DOT": 4.57e-06, "MEAN_MOTION_DDOT": 0}, "tle": {"line1": "1 36261U 99025DWN 25332.93589964  .00000457  00000+0  58813-3 0  9994", "line2": "2 36261 101.3647 223.3097 0355309 107.2508 256.7821 13.45462654842472"}}, "geometry": {"type": "Point", "coordinates": [-131.0968021864012, -7.2689902007455895]}}, {"type": "Feature", "properties": {"norad_id": 36262, "name": "FENGYUN 1C DEB", "group": "fengyun-1c-debris", "lat": -79.59323310975009, "lon": -22.409989869947267, "alt_km": 773.5404481969263, "timestamp": "2025-12-02T13:52:17.550276+00:00", "meta": {"OBJECT_NAME": "FENGYUN 1C DEB", "OBJECT_ID": "1999-025DWP", "EPOCH": "2025-11-29T22:24:04.978944", "MEAN_MOTION": 14.2777405, "ECCENTRICITY": 0.00602689, "INCLINATION": 98.9619, "RA_OF_ASC_NODE": 214.1092, "ARG_OF_PERICENTER": 312.9756, "MEAN_ANOMALY": 46.638, "EPHEMERIS_TYPE": 0, "CLASSIFICATION_TYPE": "U", "NORAD_CAT_ID": 36262, "ELEMENT_SET_NO": 999, "REV_AT_EPOCH": 89314, "BSTAR": 0.00033614212, "MEAN_MOTION_DOT": 7.99e-06, "MEAN_MOTION_DDOT": 0}, "tle": {"line1": "1 36262U 99025DWP 25333.93339096  .00000799  00000+0  33614-3 0  9996", "line2": "2 36262  98.9619 214.1092 0060268 312.9756  46.6380 14.27774050893146"}}, "geometry": {"type": "Point", "coordinates": [-22.409989869947267, -79.59323310975009]}}, {"type": "Feature", "properties": {"norad_id": 36263, "name": "FENGYUN 1C DEB", "group": "fengyun-1c-debris", "lat": 31.93113919163261, "lon": 42.68323307498145, "alt_km": 761.537391184791, "timestamp": "2025-12-02T13:52:17.550287+00:00", "meta": {"OBJECT_NAME": "FENGYUN 1C DEB", "OBJECT_ID": "1999-025DWQ", "EPOCH": "2025-11-27T03:35:49.168032", "MEAN_MOTION": 14.45321264, "ECCENTRICITY": 0.00376819, "INCLINATION": 98.9999, "RA_OF_ASC_NODE": 211.2643, "ARG_OF_PERICENTER": 311.7324, "MEAN_ANOMALY": 48.0645, "EPHEMERIS_TYPE": 0, "CLASSIFICATION_TYPE": "U", "NORAD_CAT_ID": 36263, "ELEMENT_SET_NO": 999, "REV_AT_EPOCH": 87760, "BSTAR": 0.002195983, "MEAN_MOTION_DOT": 7.739e-05, "MEAN_MOTION_DDOT": 0}, "tle": {"line1": "1 36263U 99025DWQ 25331.14987463  .00007739  00000+0  21960-2 0  9996", "line2": "2 36263  98.9999 211.2643 0037681 311.7324  48.0645 14.45321264877607"}}, "geometry": {"type": "Point", "coordinates": [42.68323307498145, 31.93113919163261]}}]}